      2.10          N: GNSS NAV DATA                        RINEX VERSION / TYPE
fic2rin                                 02/06/2019 00:18:39 PGM / RUN BY / DATE
                                                            END OF HEADER
 3 19  2  5 10  0  0.0 1.813895069063e-04 2.046363078989e-12 0.000000000000e+00
    9.100000000000e+01-7.425000000000e+01 4.179102647828e-09-2.770411180414e+00
   -3.851950168610e-06 1.879432238638e-03 1.173466444016e-05 5.153596256256e+03
    2.088000000000e+05-4.470348358154e-08 6.794383164188e-02-8.568167686462e-08
    9.628112625309e-01 1.506250000000e+02 6.485306171033e-01-7.776395346651e-09
    5.893102614235e-11 1.000000000000e+00 2.039000000000e+03 0.000000000000e+00
    2.400000000000e+00 0.000000000000e+00 2.328306436539e-09 9.100000000000e+01
    2.016000000000e+05 4.000000000000e+00
27 19  2  5 10  0  0.0-6.182631477714e-05-7.048583938740e-12 0.000000000000e+00
    3.100000000000e+01 1.010000000000e+02 4.266606292706e-09 4.500692867123e-01
    5.288049578667e-06 6.615236867219e-03 4.040077328682e-06 5.153633850098e+03
    2.088000000000e+05 8.195638656616e-08-2.030699778934e+00 1.247972249985e-07
    9.782344479627e-01 3.115625000000e+02 4.264532655703e-01-8.169268854267e-09
    3.357282701443e-10 1.000000000000e+00 2.039000000000e+03 0.000000000000e+00
    2.400000000000e+00 0.000000000000e+00 1.396983861923e-09 3.100000000000e+01
    2.016000000000e+05 4.000000000000e+00
15 19  2  5 10  0  0.0-3.292215988040e-04 1.705302565824e-12 0.000000000000e+00
    2.100000000000e+01 3.581250000000e+01 5.495228898341e-09-4.488644683439e-01
    1.948326826096e-06 1.120172266383e-02 7.506459951401e-06 5.153630081177e+03
    2.088000000000e+05 2.980232238770e-08 1.023062455023e+00 1.471489667892e-07
    9.278883709608e-01 2.158750000000e+02 7.615671357223e-01-8.608930025062e-09
    4.228747572882e-10 1.000000000000e+00 2.039000000000e+03 0.000000000000e+00
    2.400000000000e+00 0.000000000000e+00-1.071020960808e-08 2.100000000000e+01
    2.016000000000e+05 4.000000000000e+00
 8 19  2  5 10  0  0.0-1.316168345511e-04-1.364242052659e-12 0.000000000000e+00
    9.800000000000e+01 1.038750000000e+02 4.393754446080e-09 7.768103310283e-01
    5.396082997322e-06 4.230035352521e-03 4.010275006294e-06 5.153692007065e+03
    2.088000000000e+05 1.396983861923e-07-2.041181800558e+00-2.793967723846e-08
    9.699852679627e-01 3.056250000000e+02-3.592099434731e-01-8.214627886510e-09
    3.732298322349e-10 1.000000000000e+00 2.039000000000e+03 0.000000000000e+00
    3.400000000000e+00 0.000000000000e+00 5.122274160385e-09 9.800000000000e+01
    2.016000000000e+05 4.000000000000e+00
 5 19  2  5 10  0  0.0 1.017004251480e-06 1.136868377216e-13 0.000000000000e+00
    5.900000000000e+01-8.575000000000e+01 4.615906556750e-09 1.196541739646e+00
   -4.215165972710e-06 5.545467371121e-03 1.105852425098e-05 5.153629827499e+03
    2.088000000000e+05-3.539025783539e-08 4.264426974500e-02 8.381903171539e-08
    9.496869080317e-01 1.628437500000e+02 7.171317539303e-01-8.036049019412e-09
   -1.607209803882e-11 1.000000000000e+00 2.039000000000e+03 0.000000000000e+00
    2.400000000000e+00 0.000000000000e+00-1.117587089539e-08 5.900000000000e+01
    2.016000000000e+05 4.000000000000e+00
 7 19  2  5 10  0  0.0 3.838865086436e-05-7.162270776462e-12 0.000000000000e+00
    6.500000000000e+01-3.040625000000e+01 4.808057417748e-09-2.360272150512e+00
   -1.713633537292e-06 1.219001284335e-02 6.018206477165e-06 5.153604064941e+03
    2.088000000000e+05 6.332993507385e-08 2.177332992442e+00-1.247972249985e-07
    9.560464674700e-01 2.602500000000e+02-2.478151968108e+00-7.981046728346e-09
   -3.396570052205e-10 1.000000000000e+00 2.039000000000e+03 0.000000000000e+00
    2.400000000000e+00 0.000000000000e+00-1.117587089539e-08 6.500000000000e+01
    2.016000000000e+05 4.000000000000e+00
20 19  2  5 10  0  0.0 5.218866281211e-04 4.547473508865e-13 0.000000000000e+00
    1.600000000000e+01-8.331250000000e+01 4.940562937134e-09-2.028710668240e+00
   -4.248693585396e-06 4.428655956872e-03 1.042336225510e-05 5.153682743073e+03
    2.088000000000e+05-8.754432201385e-08-5.000117358387e-02 7.078051567078e-08
    9.304340488385e-01 1.645625000000e+02 2.269536571605e+00-8.161054226381e-09
   -1.107188976008e-11 1.000000000000e+00 2.039000000000e+03 0.000000000000e+00
    2.400000000000e+00 0.000000000000e+00-8.381903171539e-09 1.600000000000e+01
    2.016000000000e+05 4.000000000000e+00
10 19  2  5 10  0  0.0 1.227594912052e-04-7.275957614183e-12 0.000000000000e+00
    1.060000000000e+02-7.225000000000e+01 4.225890311008e-09 2.523236108718e+00
   -3.749504685402e-06 4.307626164518e-03 1.137703657150e-05 5.153673570633e+03
    2.088000000000e+05-1.117587089539e-07 6.465039928006e-02-3.911554813385e-08
    9.628551412957e-01 1.634375000000e+02-2.763168256912e+00-7.756394513536e-09
    8.071764792831e-11 1.000000000000e+00 2.039000000000e+03 0.000000000000e+00
    2.400000000000e+00 0.000000000000e+00 1.862645149231e-09 1.060000000000e+02
    2.016000000000e+05 4.000000000000e+00
 9 19  2  5 10  0  0.0 4.627178423107e-04-5.002220859751e-12 0.000000000000e+00
    6.800000000000e+01 3.440625000000e+01 4.886274961537e-09 8.095022769162e-01
    1.681968569756e-06 1.474189921282e-03 7.322058081627e-06 5.153735704422e+03
    2.088000000000e+05 0.000000000000e+00 1.100275489222e+00-5.587935447693e-09
    9.523039265724e-01 2.328125000000e+02 1.713065961422e+00-8.149625178886e-09
    4.507330605555e-10 1.000000000000e+00 2.039000000000e+03 0.000000000000e+00
    2.400000000000e+00 0.000000000000e+00 1.396983861923e-09 6.800000000000e+01
    2.016000000000e+05 4.000000000000e+00
22 19  2  5 10  0  0.0-6.385794840753e-04-8.299139153678e-12 0.000000000000e+00
    5.500000000000e+01-8.078125000000e+01 5.097712340181e-09-3.281692180909e-01
   -4.105269908905e-06 7.145962445065e-03 1.129321753979e-05 5.153594587326e+03
    2.088000000000e+05-9.313225746155e-08-9.848145071915e-04-1.676380634308e-08
    9.271618434180e-01 1.440625000000e+02-1.425738424437e+00-8.375706024632e-09
    6.178828801592e-11 1.000000000000e+00 2.039000000000e+03 0.000000000000e+00
    2.400000000000e+00 0.000000000000e+00-1.816079020500e-08 5.500000000000e+01
    2.016000000000e+05 4.000000000000e+00
30 19  2  5 10  0  0.0-4.754029214382e-05-6.366462912410e-12 0.000000000000e+00
    8.600000000000e+01-3.131250000000e+01 5.204502502705e-09-2.348670522572e+00
   -1.695007085800e-06 3.629508777522e-03 6.012618541718e-06 5.153621467590e+03
    2.088000000000e+05-1.303851604462e-08 2.207180665706e+00-7.450580596924e-09
    9.415668320151e-01 2.542187500000e+02-3.020656282253e+00-8.295345534438e-09
   -4.218032840856e-10 1.000000000000e+00 2.039000000000e+03 0.000000000000e+00
    2.400000000000e+00 0.000000000000e+00 3.725290298462e-09 8.600000000000e+01
    2.016000000000e+05 4.000000000000e+00
24 19  2  5 10  0  0.0-6.173923611641e-05-4.547473508865e-13 0.000000000000e+00
    5.100000000000e+01-3.103125000000e+01 5.283791519697e-09-1.428108082548e+00
   -1.600012183189e-06 8.157584234141e-03 4.956498742104e-06 5.153721372604e+03
    2.088000000000e+05 1.601874828339e-07 2.113258958015e+00-1.247972249985e-07
    9.391306242972e-01 2.721562500000e+02 5.905579414630e-01-8.375348866898e-09
   -3.560862609935e-10 1.000000000000e+00 2.039000000000e+03 0.000000000000e+00
    2.400000000000e+00 0.000000000000e+00 2.793967723846e-09 5.100000000000e+01
    2.016000000000e+05 4.000000000000e+00
16 19  2  5 10  0  0.0-1.721549779177e-05-2.387423592154e-12 0.000000000000e+00
    1.040000000000e+02 6.531250000000e+01 3.613007639128e-09 1.329684569237e+00
    3.539025783539e-06 1.054480636958e-02 1.167133450508e-05 5.153776817322e+03
    2.088000000000e+05-8.940696716309e-08-2.989478977376e+00 8.195638656616e-08
    9.848160622734e-01 1.692187500000e+02 5.338012374785e-01-7.564957968007e-09
   -2.639395655709e-10 1.000000000000e+00 2.039000000000e+03 0.000000000000e+00
    2.400000000000e+00 0.000000000000e+00-1.071020960808e-08 1.040000000000e+02
    2.016000000000e+05 4.000000000000e+00
25 19  2  5 10  0  0.0-7.160431705415e-04-5.456968210638e-12 0.000000000000e+00
    7.300000000000e+01 4.028125000000e+01 3.806944288796e-09 2.918756983841e+00
    2.115964889526e-06 8.137088618241e-03 1.202709972858e-05 5.153764188766e+03
    2.088000000000e+05 1.676380634308e-08-3.071263792956e+00-3.166496753693e-08
    9.719194153620e-01 1.527500000000e+02 8.516795641924e-01-7.469596852977e-09
   -1.810789712374e-10 1.000000000000e+00 2.039000000000e+03 0.000000000000e+00
    2.400000000000e+00 0.000000000000e+00 5.587935447693e-09 7.300000000000e+01
    2.016000000000e+05 4.000000000000e+00
13 19  2  5 10  0  0.0-7.595261558890e-05 1.250555214938e-12 0.000000000000e+00
    7.100000000000e+01 2.834375000000e+01 4.678409160235e-09-6.702874858785e-01
    1.521781086922e-06 3.734717611223e-03 6.519258022308e-06 5.153659250259e+03
    2.088000000000e+05-4.470348358154e-08 1.235860884372e+00 1.862645149231e-09
    9.677243544037e-01 2.545000000000e+02 1.376188635689e+00-8.108552039454e-09
    3.678724662220e-10 1.000000000000e+00 2.039000000000e+03 0.000000000000e+00
    2.400000000000e+00 0.000000000000e+00-1.117587089539e-08 7.100000000000e+01
    2.016000000000e+05 4.000000000000e+00
14 19  2  5 10  0  0.0-9.195925667882e-05 6.821210263297e-13 0.000000000000e+00
    7.900000000000e+01 3.853125000000e+01 4.879131806853e-09 2.012971502743e-01
    2.086162567139e-06 1.010642934125e-02 6.517395377159e-06 5.153662986755e+03
    2.088000000000e+05-1.192092895508e-07 1.192205274489e+00 9.685754776001e-08
    9.603236405571e-01 2.559375000000e+02-1.949503236361e+00-8.355705191517e-09
    3.460858444360e-10 1.000000000000e+00 2.039000000000e+03 0.000000000000e+00
    2.400000000000e+00 0.000000000000e+00-9.778887033463e-09 7.900000000000e+01
    2.016000000000e+05 4.000000000000e+00
